[
    {
        "Altitude(m)": 611965.2001659016,
        "Argument of Periapsis(deg)": 0.0,
        "Eccentricity": 0.0,
        "Inclination(deg)": 60.0,
        "Latitude(deg)": 59.14020645703506,
        "Longitude(deg)": 3.969628013615544,
        "Mean Anomaly(deg)": 81.8182,
        "RAAN(deg)": 30.0,
        "Satellite Name": "Test1 137",
        "Satellite Number": 137,
        "Semi-Major Axis(m)": 6980739.136638005,
        "Time(s)": 0
    },
    {
        "Altitude(m)": 611995.8263689245,
        "Argument of Periapsis(deg)": 0.00010418945913296404,
        "Eccentricity": 0.0,
        "Inclination(deg)": 60.0,
        "Latitude(deg)": 59.28330868420501,
        "Longitude(deg)": 5.102990638016793,
        "Mean Anomaly(deg)": 82.43830614546184,
        "RAAN(deg)": 29.99957995086026,
        "Satellite Name": "Test1 137",
        "Satellite Number": 137,
        "Semi-Major Axis(m)": 6980739.136638005,
        "Time(s)": 10
    },
    {
        "Altitude(m)": 612024.1116877676,
        "Argument of Periapsis(deg)": 0.0002083789182659281,
        "Eccentricity": 0.0,
        "Inclination(deg)": 60.0,
        "Latitude(deg)": 59.41572886345766,
        "Longitude(deg)": 6.2458769554120765,
        "Mean Anomaly(deg)": 83.05841229092367,
        "RAAN(deg)": 29.999159901720517,
        "Satellite Name": "Test1 137",
        "Satellite Number": 137,
        "Semi-Major Axis(m)": 6980739.136638005,
        "Time(s)": 20
    },
    {
        "Altitude(m)": 612050.0399032634,
        "Argument of Periapsis(deg)": 0.00031256837739889213,
        "Eccentricity": 0.0,
        "Inclination(deg)": 60.0,
        "Latitude(deg)": 59.5373275676251,
        "Longitude(deg)": 7.3976589621929385,
        "Mean Anomaly(deg)": 83.67851843638549,
        "RAAN(deg)": 29.99873985258077,
        "Satellite Name": "Test1 137",
        "Satellite Number": 137,
        "Semi-Major Axis(m)": 6980739.136638005,
        "Time(s)": 30
    },
    {
        "Altitude(m)": 612073.5961564906,
        "Argument of Periapsis(deg)": 0.0004167578365318562,
        "Eccentricity": 0.0,
        "Inclination(deg)": 60.0,
        "Latitude(deg)": 59.64797462575288,
        "Longitude(deg)": 8.557673038598676,
        "Mean Anomaly(deg)": 84.29862458184735,
        "RAAN(deg)": 29.998319803441028,
        "Satellite Name": "Test1 137",
        "Satellite Number": 137,
        "Semi-Major Axis(m)": 6980739.136638005,
        "Time(s)": 40
    },
    {
        "Altitude(m)": 612094.7669557866,
        "Argument of Periapsis(deg)": 0.0005209472956648203,
        "Eccentricity": 0.0,
        "Inclination(deg)": 60.0,
        "Latitude(deg)": 59.747549776250644,
        "Longitude(deg)": 9.72522080760902,
        "Mean Anomaly(deg)": 84.91873072730917,
        "RAAN(deg)": 29.997899754301283,
        "Satellite Name": "Test1 137",
        "Satellite Number": 137,
        "Semi-Major Axis(m)": 6980739.136638005,
        "Time(s)": 50
    },
    {
        "Altitude(m)": 612113.5401831019,
        "Argument of Periapsis(deg)": 0.0006251367547977843,
        "Eccentricity": 0.0,
        "Inclination(deg)": 60.0,
        "Latitude(deg)": 59.83594328648361,
        "Longitude(deg)": 10.899571839638591,
        "Mean Anomaly(deg)": 85.53883687277097,
        "RAAN(deg)": 29.99747970516154,
        "Satellite Name": "Test1 137",
        "Satellite Number": 137,
        "Semi-Major Axis(m)": 6980739.136638005,
        "Time(s)": 60
    },
    {
        "Altitude(m)": 612129.9050997059,
        "Argument of Periapsis(deg)": 0.0007293262139307483,
        "Eccentricity": 0.0,
        "Inclination(deg)": 60.0,
        "Latitude(deg)": 59.9130565317377,
        "Longitude(deg)": 12.079966679607736,
        "Mean Anomaly(deg)": 86.15894301823282,
        "RAAN(deg)": 29.997059656021797,
        "Satellite Name": "Test1 137",
        "Satellite Number": 137,
        "Semi-Major Axis(m)": 6980739.136638005,
        "Time(s)": 70
    },
    {
        "Altitude(m)": 612143.852351254,
        "Argument of Periapsis(deg)": 0.0008335156730637124,
        "Eccentricity": 0.0,
        "Inclination(deg)": 60.0,
        "Latitude(deg)": 59.978802526730796,
        "Longitude(deg)": 13.265618667364034,
        "Mean Anomaly(deg)": 86.77904916369465,
        "RAAN(deg)": 29.996639606882056,
        "Satellite Name": "Test1 137",
        "Satellite Number": 137,
        "Semi-Major Axis(m)": 6980739.136638005,
        "Time(s)": 80
    },
    {
        "Altitude(m)": 612155.3739722038,
        "Argument of Periapsis(deg)": 0.0009377051321966765,
        "Eccentricity": 0.0,
        "Inclination(deg)": 60.0,
        "Latitude(deg)": 60.03310640320988,
        "Longitude(deg)": 14.45571755537655,
        "Mean Anomaly(deg)": 87.3991553091565,
        "RAAN(deg)": 29.996219557742315,
        "Satellite Name": "Test1 137",
        "Satellite Number": 137,
        "Semi-Major Axis(m)": 6980739.136638005,
        "Time(s)": 90
    },
    {
        "Altitude(m)": 612164.4633895372,
        "Argument of Periapsis(deg)": 0.0010418945913296407,
        "Eccentricity": 0.0,
        "Inclination(deg)": 60.0,
        "Latitude(deg)": 60.075905827663036,
        "Longitude(deg)": 15.649433383531688,
        "Mean Anomaly(deg)": 88.0192614546183,
        "RAAN(deg)": 29.995799508602573,
        "Satellite Name": "Test1 137",
        "Satellite Number": 137,
        "Semi-Major Axis(m)": 6980739.136638005,
        "Time(s)": 100
    },
    {
        "Altitude(m)": 612171.115425879,
        "Argument of Periapsis(deg)": 0.0011460840504626045,
        "Eccentricity": 0.0,
        "Inclination(deg)": 60.0,
        "Latitude(deg)": 60.107151353801356,
        "Longitude(deg)": 16.84591906574985,
        "Mean Anomaly(deg)": 88.63936760008012,
        "RAAN(deg)": 29.99537945946283,
        "Satellite Name": "Test1 137",
        "Satellite Number": 137,
        "Semi-Major Axis(m)": 6980739.136638005,
        "Time(s)": 110
    },
    {
        "Altitude(m)": 612175.3263019226,
        "Argument of Periapsis(deg)": 0.0012502735095955685,
        "Eccentricity": 0.0,
        "Inclination(deg)": 60.0,
        "Latitude(deg)": 60.12680670522108,
        "Longitude(deg)": 18.044314677185156,
        "Mean Anomaly(deg)": 89.25947374554197,
        "RAAN(deg)": 29.994959410323087,
        "Satellite Name": "Test1 137",
        "Satellite Number": 137,
        "Semi-Major Axis(m)": 6980739.136638005,
        "Time(s)": 120
    },
    {
        "Altitude(m)": 612177.0936382075,
        "Argument of Periapsis(deg)": 0.0013544629687285324,
        "Eccentricity": 0.0,
        "Inclination(deg)": 60.0,
        "Latitude(deg)": 60.13484898450156,
        "Longitude(deg)": 19.243751888234772,
        "Mean Anomaly(deg)": 89.8795798910038,
        "RAAN(deg)": 29.994539361183346,
        "Satellite Name": "Test1 137",
        "Satellite Number": 137,
        "Semi-Major Axis(m)": 6980739.136638005,
        "Time(s)": 130
    },
    {
        "Altitude(m)": 612176.4164562419,
        "Argument of Periapsis(deg)": 0.0014586524278614966,
        "Eccentricity": 0.0,
        "Inclination(deg)": 60.0,
        "Latitude(deg)": 60.13126880593627,
        "Longitude(deg)": 20.44335698847772,
        "Mean Anomaly(deg)": 90.49968603646565,
        "RAAN(deg)": 29.994119312043605,
        "Satellite Name": "Test1 137",
        "Satellite Number": 137,
        "Semi-Major Axis(m)": 6980739.136638005,
        "Time(s)": 140
    },
    {
        "Altitude(m)": 612173.2951789509,
        "Argument of Periapsis(deg)": 0.0015628418869944607,
        "Eccentricity": 0.0,
        "Inclination(deg)": 60.0,
        "Latitude(deg)": 60.11607035011002,
        "Longitude(deg)": 21.642255480079545,
        "Mean Anomaly(deg)": 91.11979218192747,
        "RAAN(deg)": 29.993699262903853,
        "Satellite Name": "Test1 137",
        "Satellite Number": 137,
        "Semi-Major Axis(m)": 6980739.136638005,
        "Time(s)": 150
    },
    {
        "Altitude(m)": 612167.7316304803,
        "Argument of Periapsis(deg)": 0.0016670313461274247,
        "Eccentricity": 0.0,
        "Inclination(deg)": 60.0,
        "Latitude(deg)": 60.08927133958033,
        "Longitude(deg)": 22.839576680356235,
        "Mean Anomaly(deg)": 91.73989832738928,
        "RAAN(deg)": 29.99327921376411,
        "Satellite Name": "Test1 137",
        "Satellite Number": 137,
        "Semi-Major Axis(m)": 6980739.136638005,
        "Time(s)": 160
    },
    {
        "Altitude(m)": 612159.7290353354,
        "Argument of Periapsis(deg)": 0.0017712208052603888,
        "Eccentricity": 0.0,
        "Inclination(deg)": 60.0,
        "Latitude(deg)": 60.05090293598981,
        "Longitude(deg)": 24.03445677299202,
        "Mean Anomaly(deg)": 92.36000447285112,
        "RAAN(deg)": 29.99285916462437,
        "Satellite Name": "Test1 137",
        "Satellite Number": 137,
        "Semi-Major Axis(m)": 6980739.136638005,
        "Time(s)": 170
    },
    {
        "Altitude(m)": 612149.2920168565,
        "Argument of Periapsis(deg)": 0.001875410264393353,
        "Eccentricity": 0.0,
        "Inclination(deg)": 60.0,
        "Latitude(deg)": 60.00100956000683,
        "Longitude(deg)": 25.226043286859422,
        "Mean Anomaly(deg)": 92.98011061831295,
        "RAAN(deg)": 29.99243911548463,
        "Satellite Name": "Test1 137",
        "Satellite Number": 137,
        "Semi-Major Axis(m)": 6980739.136638005,
        "Time(s)": 180
    },
    {
        "Altitude(m)": 612136.4265950334,
        "Argument of Periapsis(deg)": 0.0019795997235263173,
        "Eccentricity": 0.0,
        "Inclination(deg)": 60.0,
        "Latitude(deg)": 59.9396486365115,
        "Longitude(deg)": 26.413499444604433,
        "Mean Anomaly(deg)": 93.60021676377477,
        "RAAN(deg)": 29.992019066344888,
        "Satellite Name": "Test1 137",
        "Satellite Number": 137,
        "Semi-Major Axis(m)": 6980739.136638005,
        "Time(s)": 190
    }
]